CCSDS_OMM_VERS = 2.0
CREATION_DATE  = 
ORIGINATOR     = 

OBJECT_NAME    = ELECTRON KICK STAGE R/B
OBJECT_ID      = 2026-056C
CENTER_NAME    = EARTH
REF_FRAME      = TEME
TIME_SYSTEM    = UTC
MEAN_ELEMENT_THEORY = SGP/SGP4

EPOCH          = 2026-04-03T20:51:58.785696
MEAN_MOTION    = 15.40968504
ECCENTRICITY   = .0153195
INCLINATION    = 50.2922
RA_OF_ASC_NODE = 336.7653
ARG_OF_PERICENTER = 68.2534
MEAN_ANOMALY   = 293.4659

EPHEMERIS_TYPE = 0
CLASSIFICATION_TYPE = U
NORAD_CAT_ID   = 68293
ELEMENT_SET_NO = 999
REV_AT_EPOCH   = 218
BSTAR          = .19613381E-2
MEAN_MOTION_DOT = .127375E-2
MEAN_MOTION_DDOT = 0

CCSDS_OMM_VERS = 2.0
CREATION_DATE  = 
ORIGINATOR     = 

OBJECT_NAME    = STARLINK-37107
OBJECT_ID      = 2026-057A
CENTER_NAME    = EARTH
REF_FRAME      = TEME
TIME_SYSTEM    = UTC
MEAN_ELEMENT_THEORY = SGP/SGP4

EPOCH          = 2026-04-03T22:00:01.999584
MEAN_MOTION    = 15.86247105
ECCENTRICITY   = .00015949
INCLINATION    = 97.2817
RA_OF_ASC_NODE = 217.5102
ARG_OF_PERICENTER = 79.4254
MEAN_ANOMALY   = 108.8192

EPHEMERIS_TYPE = 0
CLASSIFICATION_TYPE = U
NORAD_CAT_ID   = 68294
ELEMENT_SET_NO = 999
REV_AT_EPOCH   = 321
BSTAR          = -.64553312E-2
MEAN_MOTION_DOT = -.1396248E-1
MEAN_MOTION_DDOT = 0

CCSDS_OMM_VERS = 2.0
CREATION_DATE  = 
ORIGINATOR     = 

OBJECT_NAME    = STARLINK-37147
OBJECT_ID      = 2026-057B
CENTER_NAME    = EARTH
REF_FRAME      = TEME
TIME_SYSTEM    = UTC
MEAN_ELEMENT_THEORY = SGP/SGP4

EPOCH          = 2026-04-03T22:00:01.999584
MEAN_MOTION    = 15.86296866
ECCENTRICITY   = .00015495
INCLINATION    = 97.2811
RA_OF_ASC_NODE = 217.5112
ARG_OF_PERICENTER = 80.0170
MEAN_ANOMALY   = 112.2163

EPHEMERIS_TYPE = 0
CLASSIFICATION_TYPE = U
NORAD_CAT_ID   = 68295
ELEMENT_SET_NO = 999
REV_AT_EPOCH   = 320
BSTAR          = -.64416042E-2
MEAN_MOTION_DOT = -.1396587E-1
MEAN_MOTION_DDOT = 0

CCSDS_OMM_VERS = 2.0
CREATION_DATE  = 
ORIGINATOR     = 

OBJECT_NAME    = STARLINK-37142
OBJECT_ID      = 2026-057C
CENTER_NAME    = EARTH
REF_FRAME      = TEME
TIME_SYSTEM    = UTC
MEAN_ELEMENT_THEORY = SGP/SGP4

EPOCH          = 2026-04-03T22:00:01.999584
MEAN_MOTION    = 15.86373471
ECCENTRICITY   = .0001597
INCLINATION    = 97.2803
RA_OF_ASC_NODE = 217.5164
ARG_OF_PERICENTER = 77.7478
MEAN_ANOMALY   = 127.1283

EPHEMERIS_TYPE = 0
CLASSIFICATION_TYPE = U
NORAD_CAT_ID   = 68296
ELEMENT_SET_NO = 999
REV_AT_EPOCH   = 309
BSTAR          = -.65042467E-2
MEAN_MOTION_DOT = -.1413068E-1
MEAN_MOTION_DDOT = 0

CCSDS_OMM_VERS = 2.0
CREATION_DATE  = 
ORIGINATOR     = 

OBJECT_NAME    = STARLINK-37115
OBJECT_ID      = 2026-057D
CENTER_NAME    = EARTH
REF_FRAME      = TEME
TIME_SYSTEM    = UTC
MEAN_ELEMENT_THEORY = SGP/SGP4

EPOCH          = 2026-04-03T22:00:01.999584
MEAN_MOTION    = 15.86328918
ECCENTRICITY   = .00014832
INCLINATION    = 97.2801
RA_OF_ASC_NODE = 217.5136
ARG_OF_PERICENTER = 82.2424
MEAN_ANOMALY   = 118.5638

EPHEMERIS_TYPE = 0
CLASSIFICATION_TYPE = U
NORAD_CAT_ID   = 68297
ELEMENT_SET_NO = 999
REV_AT_EPOCH   = 309
BSTAR          = -.64972319E-2
MEAN_MOTION_DOT = -.1408967E-1
MEAN_MOTION_DDOT = 0

CCSDS_OMM_VERS = 2.0
CREATION_DATE  = 
ORIGINATOR     = 

OBJECT_NAME    = STARLINK-36355
OBJECT_ID      = 2026-057E
CENTER_NAME    = EARTH
REF_FRAME      = TEME
TIME_SYSTEM    = UTC
MEAN_ELEMENT_THEORY = SGP/SGP4

EPOCH          = 2026-04-03T22:00:01.999584
MEAN_MOTION    = 15.86331256
ECCENTRICITY   = .00015736
INCLINATION    = 97.2807
RA_OF_ASC_NODE = 217.5125
ARG_OF_PERICENTER = 83.7277
MEAN_ANOMALY   = 112.6025

EPHEMERIS_TYPE = 0
CLASSIFICATION_TYPE = U
NORAD_CAT_ID   = 68298
ELEMENT_SET_NO = 999
REV_AT_EPOCH   = 336
BSTAR          = -.64249739E-2
MEAN_MOTION_DOT = -.1395509E-1
MEAN_MOTION_DDOT = 0

CCSDS_OMM_VERS = 2.0
CREATION_DATE  = 
ORIGINATOR     = 

OBJECT_NAME    = STARLINK-37118
OBJECT_ID      = 2026-057F
CENTER_NAME    = EARTH
REF_FRAME      = TEME
TIME_SYSTEM    = UTC
MEAN_ELEMENT_THEORY = SGP/SGP4

EPOCH          = 2026-04-03T22:00:01.999584
MEAN_MOTION    = 15.86404906
ECCENTRICITY   = .00015474
INCLINATION    = 97.2793
RA_OF_ASC_NODE = 217.5193
ARG_OF_PERICENTER = 81.4917
MEAN_ANOMALY   = 132.0000

EPHEMERIS_TYPE = 0
CLASSIFICATION_TYPE = U
NORAD_CAT_ID   = 68299
ELEMENT_SET_NO = 999
REV_AT_EPOCH   = 320
BSTAR          = -.65299938E-2
MEAN_MOTION_DOT = -.1419796E-1
MEAN_MOTION_DDOT = 0

CCSDS_OMM_VERS = 2.0
CREATION_DATE  = 
ORIGINATOR     = 

OBJECT_NAME    = STARLINK-36875
OBJECT_ID      = 2026-057G
CENTER_NAME    = EARTH
REF_FRAME      = TEME
TIME_SYSTEM    = UTC
MEAN_ELEMENT_THEORY = SGP/SGP4

EPOCH          = 2026-04-03T22:00:01.999584
MEAN_MOTION    = 15.86354518
ECCENTRICITY   = .00015922
INCLINATION    = 97.2799
RA_OF_ASC_NODE = 217.5177
ARG_OF_PERICENTER = 77.0149
MEAN_ANOMALY   = 132.4256

EPHEMERIS_TYPE = 0
CLASSIFICATION_TYPE = U
NORAD_CAT_ID   = 68300
ELEMENT_SET_NO = 999
REV_AT_EPOCH   = 326
BSTAR          = -.65250832E-2
MEAN_MOTION_DOT = -.1415857E-1
MEAN_MOTION_DDOT = 0

CCSDS_OMM_VERS = 2.0
CREATION_DATE  = 
ORIGINATOR     = 

OBJECT_NAME    = STARLINK-37099
OBJECT_ID      = 2026-057H
CENTER_NAME    = EARTH
REF_FRAME      = TEME
TIME_SYSTEM    = UTC
MEAN_ELEMENT_THEORY = SGP/SGP4

EPOCH          = 2026-04-03T22:00:01.999584
MEAN_MOTION    = 15.86379419
ECCENTRICITY   = .00015716
INCLINATION    = 97.2790
RA_OF_ASC_NODE = 217.5215
ARG_OF_PERICENTER = 79.3583
MEAN_ANOMALY   = 138.8249

EPHEMERIS_TYPE = 0
CLASSIFICATION_TYPE = U
NORAD_CAT_ID   = 68301
ELEMENT_SET_NO = 999
REV_AT_EPOCH   = 309
BSTAR          = -.66145119E-2
MEAN_MOTION_DOT = -.143421E-1
MEAN_MOTION_DDOT = 0

CCSDS_OMM_VERS = 2.0
CREATION_DATE  = 
ORIGINATOR     = 

OBJECT_NAME    = STARLINK-37007
OBJECT_ID      = 2026-057J
CENTER_NAME    = EARTH
REF_FRAME      = TEME
TIME_SYSTEM    = UTC
MEAN_ELEMENT_THEORY = SGP/SGP4

EPOCH          = 2026-04-03T22:00:01.999584
MEAN_MOTION    = 15.86335507
ECCENTRICITY   = .0001513
INCLINATION    = 97.2779
RA_OF_ASC_NODE = 217.5249
ARG_OF_PERICENTER = 85.5318
MEAN_ANOMALY   = 141.9941

EPHEMERIS_TYPE = 0
CLASSIFICATION_TYPE = U
NORAD_CAT_ID   = 68302
ELEMENT_SET_NO = 999
REV_AT_EPOCH   = 331
BSTAR          = -.67308781E-2
MEAN_MOTION_DOT = -.1453289E-1
MEAN_MOTION_DDOT = 0

CCSDS_OMM_VERS = 2.0
CREATION_DATE  = 
ORIGINATOR     = 

OBJECT_NAME    = STARLINK-36300
OBJECT_ID      = 2026-057K
CENTER_NAME    = EARTH
REF_FRAME      = TEME
TIME_SYSTEM    = UTC
MEAN_ELEMENT_THEORY = SGP/SGP4

EPOCH          = 2026-04-03T22:00:01.999584
MEAN_MOTION    = 15.86336523
ECCENTRICITY   = .00015426
INCLINATION    = 97.2785
RA_OF_ASC_NODE = 217.5227
ARG_OF_PERICENTER = 85.5151
MEAN_ANOMALY   = 137.5085

EPHEMERIS_TYPE = 0
CLASSIFICATION_TYPE = U
NORAD_CAT_ID   = 68303
ELEMENT_SET_NO = 999
REV_AT_EPOCH   = 336
BSTAR          = -.6709829E-2
MEAN_MOTION_DOT = -.1449441E-1
MEAN_MOTION_DDOT = 0

CCSDS_OMM_VERS = 2.0
CREATION_DATE  = 
ORIGINATOR     = 

OBJECT_NAME    = STARLINK-36849
OBJECT_ID      = 2026-057L
CENTER_NAME    = EARTH
REF_FRAME      = TEME
TIME_SYSTEM    = UTC
MEAN_ELEMENT_THEORY = SGP/SGP4

EPOCH          = 2026-04-03T22:00:01.999584
MEAN_MOTION    = 15.86384045
ECCENTRICITY   = .00015368
INCLINATION    = 97.2781
RA_OF_ASC_NODE = 217.5266
ARG_OF_PERICENTER = 79.0416
MEAN_ANOMALY   = 152.5603

EPHEMERIS_TYPE = 0
CLASSIFICATION_TYPE = U
NORAD_CAT_ID   = 68304
ELEMENT_SET_NO = 999
REV_AT_EPOCH   = 326
BSTAR          = -.67033184E-2
MEAN_MOTION_DOT = -.1451145E-1
MEAN_MOTION_DDOT = 0

