ELECTRON KICK STAGE R/B 
1 68293U 26056C   26093.86943039  .00127375  00000+0  19613-2 0  9995
2 68293  50.2922 336.7653 0153195  68.2534 293.4659 15.40968504  2186
STARLINK-37107          
1 68294U 26057A   26093.91668981 -.01396248  00000+0 -64553-2 0  9996
2 68294  97.2817 217.5102 0001594  79.4254 108.8192 15.86247105  3217
STARLINK-37147          
1 68295U 26057B   26093.91668981 -.01396587  00000+0 -64416-2 0  9991
2 68295  97.2811 217.5112 0001549  80.0170 112.2163 15.86296866  3202
STARLINK-37142          
1 68296U 26057C   26093.91668981 -.01413068  00000+0 -65042-2 0  9992
2 68296  97.2803 217.5164 0001597  77.7478 127.1283 15.86373471  3091
STARLINK-37115          
1 68297U 26057D   26093.91668981 -.01408967  00000+0 -64972-2 0  9996
2 68297  97.2801 217.5136 0001483  82.2424 118.5638 15.86328918  3099
STARLINK-36355          
1 68298U 26057E   26093.91668981 -.01395509  00000+0 -64250-2 0  9993
2 68298  97.2807 217.5125 0001573  83.7277 112.6025 15.86331256  3360
STARLINK-37118          
1 68299U 26057F   26093.91668981 -.01419796  00000+0 -65300-2 0  9996
2 68299  97.2793 217.5193 0001547  81.4917 132.0000 15.86404906  3202
STARLINK-36875          
1 68300U 26057G   26093.91668981 -.01415857  00000+0 -65251-2 0  9998
2 68300  97.2799 217.5177 0001592  77.0149 132.4256 15.86354518  3267
STARLINK-37099          
1 68301U 26057H   26093.91668981 -.01434210  00000+0 -66145-2 0  9996
2 68301  97.2790 217.5215 0001571  79.3583 138.8249 15.86379419  3096
STARLINK-37007          
1 68302U 26057J   26093.91668981 -.01453289  00000+0 -67309-2 0  9997
2 68302  97.2779 217.5249 0001513  85.5318 141.9941 15.86335507  3311
STARLINK-36300          
1 68303U 26057K   26093.91668981 -.01449441  00000+0 -67098-2 0  9998
2 68303  97.2785 217.5227 0001542  85.5151 137.5085 15.86336523  3366
STARLINK-36849          
1 68304U 26057L   26093.91668981 -.01451145  00000+0 -67033-2 0  9992
2 68304  97.2781 217.5266 0001536  79.0416 152.5603 15.86384045  3265
